{"type": "FeatureCollection", "features": [ {"type": "Feature", "properties": {"norad_id": 65304, "name": "DRAGON CRS-33", "group": "stations", "lat": 46.12945782076026, "lon": -166.52329454896224, "alt_km": 413.8432604222053, "timestamp": "2025-12-13T15:35:10.899679+00:00", "meta": {"OBJECT_NAME": "DRAGON CRS-33", "OBJECT_ID": "2025-186A", "EPOCH": "2025-12-12T20:43:30.984384", "MEAN_MOTION": 15.49550036, "ECCENTRICITY": 0.00032451, "INCLINATION": 51.6304, "RA_OF_ASC_NODE": 141.8664, "ARG_OF_PERICENTER": 240.6311, "MEAN_ANOMALY": 119.4354, "EPHEMERIS_TYPE": 0, "CLASSIFICATION_TYPE": "U", "NORAD_CAT_ID": 65304, "ELEMENT_SET_NO": 999, "REV_AT_EPOCH": 11, "BSTAR": 0.00025741225, "MEAN_MOTION_DOT": 0.00014033, "MEAN_MOTION_DDOT": 0}, "tle": {"line1": "1 65304U 25186A   25346.86355306  .00014033  00000+0  25741-3 0  9998", "line2": "2 65304  51.6304 141.8664 0003245 240.6311 119.4354 15.49550036   117"}}, "geometry": {"type": "Point", "coordinates": [-166.52329454896224, 46.12945782076026]}}, {"type": "Feature", "properties": {"norad_id": 65586, "name": "PROGRESS-MS 32", "group": "stations", "lat": 46.12945810780465, "lon": -166.5232937134687, "alt_km": 413.8432603785732, "timestamp": "2025-12-13T15:35:10.899689+00:00", "meta": {"OBJECT_NAME": "PROGRESS-MS 32", "OBJECT_ID": "2025-204A", "EPOCH": "2025-12-12T20:43:30.984384", "MEAN_MOTION": 15.49550036, "ECCENTRICITY": 0.00032451, "INCLINATION": 51.6304, "RA_OF_ASC_NODE": 141.8664, "ARG_OF_PERICENTER": 240.6311, "MEAN_ANOMALY": 119.4354, "EPHEMERIS_TYPE": 0, "CLASSIFICATION_TYPE": "U", "NORAD_CAT_ID": 65586, "ELEMENT_SET_NO": 999, "REV_AT_EPOCH": 27, "BSTAR": 0.00025741225, "MEAN_MOTION_DOT": 0.00014033, "MEAN_MOTION_DDOT": 0}, "tle": {"line1": "1 65586U 25204A   25346.86355306  .00014033  00000+0  25741-3 0  9991", "line2": "2 65586  51.6304 141.8664 0003245 240.6311 119.4354 15.49550036   276"}}, "geometry": {"type": "Point", "coordinates": [-166.5232937134687, 46.12945810780465]}}, {"type": "Feature", "properties": {"norad_id": 65616, "name": "CYGNUS NG-23", "group": "stations", "lat": 46.129458423553785, "lon": -166.52329279442492, "alt_km": 413.84326033058005, "timestamp": "2025-12-13T15:35:10.899700+00:00", "meta": {"OBJECT_NAME": "CYGNUS NG-23", "OBJECT_ID": "2025-208A", "EPOCH": "2025-12-12T20:43:30.984384", "MEAN_MOTION": 15.49550036, "ECCENTRICITY": 0.00032451, "INCLINATION": 51.6304, "RA_OF_ASC_NODE": 141.8664, "ARG_OF_PERICENTER": 240.6311, "MEAN_ANOMALY": 119.4354, "EPHEMERIS_TYPE": 0, "CLASSIFICATION_TYPE": "U", "NORAD_CAT_ID": 65616, "ELEMENT_SET_NO": 999, "REV_AT_EPOCH": 22, "BSTAR": 0.00025741225, "MEAN_MOTION_DOT": 0.00014033, "MEAN_MOTION_DDOT": 0}, "tle": {"line1": "1 65616U 25208A   25346.86355306  .00014033  00000+0  25741-3 0  9999", "line2": "2 65616  51.6304 141.8664 0003245 240.6311 119.4354 15.49550036   225"}}, "geometry": {"type": "Point", "coordinates": [-166.52329279442492, 46.129458423553785]}}, {"type": "Feature", "properties": {"norad_id": 65729, "name": "DRAGONFLY", "group": "stations", "lat": 43.2863137351896, "lon": -97.17846588804738, "alt_km": 350.69703481633223, "timestamp": "2025-12-13T15:35:10.899710+00:00", "meta": {"OBJECT_NAME": "DRAGONFLY", "OBJECT_ID": "1998-067XH", "EPOCH": "2025-12-12T16:11:54.021120", "MEAN_MOTION": 15.71879709, "ECCENTRICITY": 0.0006787, "INCLINATION": 51.6248, "RA_OF_ASC_NODE": 136.0967, "ARG_OF_PERICENTER": 276.9077, "MEAN_ANOMALY": 83.1148, "EPHEMERIS_TYPE": 0, "CLASSIFICATION_TYPE": "U", "NORAD_CAT_ID": 65729, "ELEMENT_SET_NO": 999, "REV_AT_EPOCH": 1315, "BSTAR": 0.001612676, "MEAN_MOTION_DOT": 0.00219639, "MEAN_MOTION_DDOT": 0}, "tle": {"line1": "1 65729U 98067XH  25346.67493080  .00219639  00000+0  16127-2 0  9994", "line2": "2 65729  51.6248 136.0967 0006787 276.9077  83.1148 15.71879709 13154"}}, "geometry": {"type": "Point", "coordinates": [-97.17846588804738, 43.2863137351896]}}, {"type": "Feature", "properties": {"norad_id": 65731, "name": "1998-067XK", "group": "stations", "lat": 41.37339973430524, "lon": -91.64670824538999, "alt_km": 366.9313393286793, "timestamp": "2025-12-13T15:35:10.899721+00:00", "meta": {"OBJECT_NAME": "1998-067XK", "OBJECT_ID": "1998-067XK", "EPOCH": "2025-12-12T16:05:23.204544", "MEAN_MOTION": 15.6571467, "ECCENTRICITY": 0.00050644, "INCLINATION": 51.6278, "RA_OF_ASC_NODE": 137.5837, "ARG_OF_PERICENTER": 245.5943, "MEAN_ANOMALY": 114.4524, "EPHEMERIS_TYPE": 0, "CLASSIFICATION_TYPE": "U", "NORAD_CAT_ID": 65731, "ELEMENT_SET_NO": 999, "REV_AT_EPOCH": 1313, "BSTAR": 0.0011638713, "MEAN_MOTION_DOT": 0.00121277, "MEAN_MOTION_DDOT": 0}, "tle": {"line1": "1 65731U 98067XK  25346.67040746  .00121277  00000+0  11639-2 0  9997", "line2": "2 65731  51.6278 137.5837 0005064 245.5943 114.4524 15.65714670 13135"}}, "geometry": {"type": "Point", "coordinates": [-91.64670824538999, 41.37339973430524]}}, {"type": "Feature", "properties": {"norad_id": 65732, "name": "RSP-03", "group": "stations", "lat": 49.36966608571565, "lon": -115.56292830698128, "alt_km": 358.53760884558596, "timestamp": "2025-12-13T15:35:10.899730+00:00", "meta": {"OBJECT_NAME": "RSP-03", "OBJECT_ID": "1998-067XL", "EPOCH": "2025-12-12T19:16:04.645920", "MEAN_MOTION": 15.68628297, "ECCENTRICITY": 0.00057622, "INCLINATION": 51.6253, "RA_OF_ASC_NODE": 136.2083, "ARG_OF_PERICENTER": 249.7501, "MEAN_ANOMALY": 110.2876, "EPHEMERIS_TYPE": 0, "CLASSIFICATION_TYPE": "U", "NORAD_CAT_ID": 65732, "ELEMENT_SET_NO": 999, "REV_AT_EPOCH": 1317, "BSTAR": 0.0013717805, "MEAN_MOTION_DOT": 0.00161855, "MEAN_MOTION_DDOT": 0}, "tle": {"line1": "1 65732U 98067XL  25346.80283155  .00161855  00000+0  13718-2 0  9992", "line2": "2 65732  51.6253 136.2083 0005762 249.7501 110.2876 15.68628297 13179"}}, "geometry": {"type": "Point", "coordinates": [-115.56292830698128, 49.36966608571565]}}, {"type": "Feature", "properties": {"norad_id": 65733, "name": "GHS-01", "group": "stations", "lat": 32.03846506527551, "lon": 160.24726461000333, "alt_km": 341.9549183142726, "timestamp": "2025-12-13T15:35:10.899744+00:00", "meta": {"OBJECT_NAME": "GHS-01", "OBJECT_ID": "1998-067XM", "EPOCH": "2025-12-12T16:33:54.337536", "MEAN_MOTION": 15.74787819, "ECCENTRICITY": 0.00071608, "INCLINATION": 51.6272, "RA_OF_ASC_NODE": 135.4559, "ARG_OF_PERICENTER": 280.4692, "MEAN_ANOMALY": 79.55, "EPHEMERIS_TYPE": 0, "CLASSIFICATION_TYPE": "U", "NORAD_CAT_ID": 65733, "ELEMENT_SET_NO": 999, "REV_AT_EPOCH": 1317, "BSTAR": 0.0017046622, "MEAN_MOTION_DOT": 0.00264493, "MEAN_MOTION_DDOT": 0}, "tle": {"line1": "1 65733U 98067XM  25346.69021224  .00264493  00000+0  17047-2 0  9998", "line2": "2 65733  51.6272 135.4559 0007160 280.4692  79.5500 15.74787819 13171"}}, "geometry": {"type": "Point", "coordinates": [160.24726461000333, 32.03846506527551]}}, {"type": "Feature", "properties": {"norad_id": 65941, "name": "YOTSUBA-KULOVER", "group": "stations", "lat": -32.25805457593332, "lon": -14.590206227468025, "alt_km": 391.769961908225, "timestamp": "2025-12-13T15:35:10.899756+00:00", "meta": {"OBJECT_NAME": "YOTSUBA-KULOVER", "OBJECT_ID": "1998-067XN", "EPOCH": "2025-12-12T17:06:14.759712", "MEAN_MOTION": 15.59446006, "ECCENTRICITY": 0.00014368, "INCLINATION": 51.6283, "RA_OF_ASC_NODE": 140.1144, "ARG_OF_PERICENTER": 251.0528, "MEAN_ANOMALY": 109.031, "EPHEMERIS_TYPE": 0, "CLASSIFICATION_TYPE": "U", "NORAD_CAT_ID": 65941, "ELEMENT_SET_NO": 999, "REV_AT_EPOCH": 985, "BSTAR": 0.0010887286, "MEAN_MOTION_DOT": 0.00088324, "MEAN_MOTION_DDOT": 0}, "tle": {"line1": "1 65941U 98067XN  25346.71267083  .00088324  00000+0  10887-2 0  9999", "line2": "2 65941  51.6283 140.1144 0001436 251.0528 109.0310 15.59446006  9850"}}, "geometry": {"type": "Point", "coordinates": [-14.590206227468025, -32.25805457593332]}}, {"type": "Feature", "properties": {"norad_id": 65942, "name": "BOTAN", "group": "stations", "lat": -17.725540567022065, "lon": -30.63381392969339, "alt_km": 379.7144195314613, "timestamp": "2025-12-13T15:35:10.899766+00:00", "meta": {"OBJECT_NAME": "BOTAN", "OBJECT_ID": "1998-067XP", "EPOCH": "2025-12-12T20:18:31.406976", "MEAN_MOTION": 15.62906067, "ECCENTRICITY": 0.00031064, "INCLINATION": 51.6286, "RA_OF_ASC_NODE": 138.7562, "ARG_OF_PERICENTER": 238.0921, "MEAN_ANOMALY": 121.9771, "EPHEMERIS_TYPE": 0, "CLASSIFICATION_TYPE": "U", "NORAD_CAT_ID": 65942, "ELEMENT_SET_NO": 999, "REV_AT_EPOCH": 988, "BSTAR": 0.0014970071, "MEAN_MOTION_DOT": 0.00139962, "MEAN_MOTION_DDOT": 0}, "tle": {"line1": "1 65942U 98067XP  25346.84619684  .00139962  00000+0  14970-2 0  9994", "line2": "2 65942  51.6286 138.7562 0003106 238.0921 121.9771 15.62906067  9888"}}, "geometry": {"type": "Point", "coordinates": [-30.63381392969339, -17.725540567022065]}}, {"type": "Feature", "properties": {"norad_id": 65943, "name": "E-KAGAKU-1", "group": "stations", "lat": -32.59980226419706, "lon": -14.163510862995942, "alt_km": 389.0736218062002, "timestamp": "2025-12-13T15:35:10.899776+00:00", "meta": {"OBJECT_NAME": "E-KAGAKU-1", "OBJECT_ID": "1998-067XQ", "EPOCH": "2025-12-10T06:39:08.237952", "MEAN_MOTION": 15.5900432, "ECCENTRICITY": 0.00052507, "INCLINATION": 51.6298, "RA_OF_ASC_NODE": 152.3458, "ARG_OF_PERICENTER": 191.2269, "MEAN_ANOMALY": 168.8608, "EPHEMERIS_TYPE": 0, "CLASSIFICATION_TYPE": "U", "NORAD_CAT_ID": 65943, "ELEMENT_SET_NO": 999, "REV_AT_EPOCH": 947, "BSTAR": 0.0012588803, "MEAN_MOTION_DOT": 0.00100705, "MEAN_MOTION_DDOT": 0}, "tle": {"line1": "1 65943U 98067XQ  25344.27717868  .00100705  00000+0  12589-2 0  9990", "line2": "2 65943  51.6298 152.3458 0005250 191.2269 168.8608 15.59004320  9476"}}, "geometry": {"type": "Point", "coordinates": [-14.163510862995942, -32.59980226419706]}}]}